NORAD_CAT_ID,OBJECT_NAME,OBJECT_TYPE,EPOCH,MEAN_MOTION,ECCENTRICITY,INCLINATION,RA_OF_ASC_NODE,ARG_OF_PERICENTER,MEAN_ANOMALY,BSTAR,MEAN_MOTION_DOT,MEAN_MOTION_DDOT,TLE_LINE0,TLE_LINE1,TLE_LINE2,SEMIMAJOR_AXIS,PERIOD,APOGEE,PERIGEE,DECAYED
53544.0,STARLINK-4303,PAYLOAD,2022-09-10 22:00:00,15.73137453,0.0001921999999999,53.2159,45.2359,29.7275,204.9483,-0.00013363,-0.00019283,0.0,0 STARLINK-4303,1 53544U 22101T   22253.91667824 -.00019283  00000-0 -13363-3 0  9998,2 53544  53.2159  45.2359 0001922  29.7275 204.9483 15.73137453  1305,6728.074000000001,91.537,351.232,348.645,0.0
53544.0,STARLINK-4303,PAYLOAD,2022-09-11 04:00:00,15.73071817,0.0001748,53.2162,43.9972,31.4631,179.8597,0.0011635,0.00165009,0.0,0 STARLINK-4303,1 53544U 22101T   22254.16667824  .00165009  00000-0  11635-2 0  9991,2 53544  53.2162  43.9972 0001748  31.4631 179.8597 15.73071817  3542,6728.261,91.541,351.302,348.95,0.0
53544.0,STARLINK-4303,PAYLOAD,2022-09-11 14:00:01,15.73194407,0.0001807,53.2165,41.9361,31.5263,20.968000000000004,0.00015738,0.00021519,0.0,0 STARLINK-4303,1 53544U 22101T   22254.58334491  .00021519  00000-0  15738-3 0  9994,2 53544  53.2165  41.9361 0001807  31.5263  20.9680 15.73194407  1305,6727.911,91.534,350.992,348.56,0.0
53544.0,STARLINK-4303,PAYLOAD,2022-09-11 20:00:01,15.73205088,0.000195,53.2166,40.7002,26.3681,2.8241,-7.0709e-06,-1.614e-05,0.0,0 STARLINK-4303,1 53544U 22101T   22254.83334491 -.00001614  00000-0 -70709-5 0  9999,2 53544  53.2166  40.7002 0001950  26.3681   2.8241 15.73205088  3649,6727.880999999999,91.533,351.05800000000005,348.434,0.0
53544.0,STARLINK-4303,PAYLOAD,2022-09-11 22:00:00,15.73198294,0.0001961,53.2165,40.2876,24.3918,117.0364,9.6453e-05,0.00012936,0.0,0 STARLINK-4303,1 53544U 22101T   22254.91667824  .00012936  00000-0  96453-4 0  9997,2 53544  53.2165  40.2876 0001961  24.3918 117.0364 15.73198294  1301,6727.9,91.533,351.084,348.446,0.0
53544.0,STARLINK-4303,PAYLOAD,2022-09-12 12:00:00,15.73207301,0.0001945,53.2172,37.3993,30.709,176.36,0.00026376,0.00036571,0.0,0 STARLINK-4303,1 53544U 22101T   22255.50001157  .00036571  00000-0  26376-3 0  9991,2 53544  53.2172  37.3993 0001945  30.7090 176.3600 15.73207301  1301,6727.874,91.533,351.048,348.431,0.0
53544.0,STARLINK-4303,PAYLOAD,2022-09-12 20:00:01,15.73191468,0.0002225,53.217,35.7515,25.128,270.9692,0.0003433,0.00047819,0.0,0 STARLINK-4303,1 53544U 22101T   22255.83335648  .00047819  00000-0  34330-3 0  9998,2 53544  53.2170  35.7515 0002225  25.1280 270.9692 15.73191468  3807,6727.919,91.534,351.281,348.288,0.0
53544.0,STARLINK-4303,PAYLOAD,2022-09-12 22:00:00,15.73191582,0.000223,53.2165,35.3388,24.3842,23.8808,0.00032724,0.00045541,0.0,0 STARLINK-4303,1 53544U 22101T   22255.91667824  .00045541  00000-0  32724-3 0  9996,2 53544  53.2165  35.3388 0002230  24.3842  23.8808 15.73191582  1300,6727.919,91.534,351.284,348.284,0.0
53544.0,STARLINK-4303,PAYLOAD,2022-09-13 06:00:00,15.73210388,0.0002064,53.2166,33.6875,30.0596,107.1505,-0.00040399,-0.00056966,0.0,0 STARLINK-4303,1 53544U 22101T   22256.25001157 -.00056966  00000-0 -40399-3 0  9997,2 53544  53.2166  33.6875 0002064  30.0596 107.1505 15.73210388  3878,6727.866,91.533,351.119,348.342,0.0
53544.0,STARLINK-4303,PAYLOAD,2022-09-13 14:00:01,15.73178364,0.0002276999999999,53.2172,32.039,32.3795,193.7469,-0.00011498,-0.00016713,0.0,0 STARLINK-4303,1 53544U 22101T   22256.58334491 -.00016713  00000-0 -11498-3 0  9997,2 53544  53.2172  32.0390 0002277  32.3795 193.7469 15.73178364  1305,6727.956999999999,91.534,351.35400000000016,348.29,0.0
53544.0,STARLINK-4303,PAYLOAD,2022-09-13 20:00:01,15.73153357,0.0002394,53.2171,30.8034,26.742,176.0868,0.0003248,0.00045121,0.0,0 STARLINK-4303,1 53544U 22101T   22256.83334491  .00045121  00000-0  32480-3 0  9992,2 53544  53.2171  30.8034 0002394  26.7420 176.0868 15.73153357  3963,6728.028,91.536,351.504,348.282,0.0
53544.0,STARLINK-4303,PAYLOAD,2022-09-13 22:00:00,15.73154636,0.0002372,53.217,30.3906,25.7988,289.2527,0.00038082,0.00053063,0.0,0 STARLINK-4303,1 53544U 22101T   22256.91667824  .00053063  00000-0  38082-3 0  9998,2 53544  53.2170  30.3906 0002372  25.7988 289.2527 15.73154636  1305,6728.025,91.536,351.485,348.2940000000001,0.0
53544.0,STARLINK-4303,PAYLOAD,2022-09-14 12:00:00,15.73187206,0.0002246,53.2176,27.503,23.575,357.0491,0.00012542,0.00017008,0.0,0 STARLINK-4303,1 53544U 22101T   22257.50001157  .00017008  00000-0  12542-3 0  9997,2 53544  53.2176  27.5030 0002246  23.5750 357.0491 15.73187206  4069,6727.932,91.534,351.30800000000005,348.286,0.0
53544.0,STARLINK-4303,PAYLOAD,2022-09-14 14:00:01,15.73175042,0.0002339,53.2173,27.0913,21.5746,111.2712,0.00028859,0.00040034,0.0,0 STARLINK-4303,1 53544U 22101T   22257.58334491  .00040034  00000-0  28859-3 0  9998,2 53544  53.2173  27.0913 0002339  21.5746 111.2712 15.73175042  1302,6727.965999999999,91.535,351.405,348.2580000000001,0.0
53544.0,STARLINK-4303,PAYLOAD,2022-09-14 22:00:00,15.73230363,0.0002435,53.2168,25.4422,17.2038,204.5508,-0.00034053,-0.00048209,0.0,0 STARLINK-4303,1 53544U 22101T   22257.91667824 -.00048209  00000-0 -34053-3 0  9991,2 53544  53.2168  25.4422 0002435  17.2038 204.5508 15.73230363  1303,6727.809,91.531,351.31199999999984,348.035,0.0
53544.0,STARLINK-4303,PAYLOAD,2022-09-15 14:00:01,15.73246188,0.0002458,53.2171,22.1431,18.8744,20.838,-0.00044831,-0.00063203,0.0,0 STARLINK-4303,1 53544U 22101T   22258.58334491 -.00063203  00000-0 -44831-3 0  9992,2 53544  53.2171  22.1431 0002458  18.8744  20.8380 15.73246188  1306,6727.763000000001,91.53,351.282,347.975,0.0
53544.0,STARLINK-4303,PAYLOAD,2022-09-15 22:00:00,15.73195723,0.0002595,53.2171,20.4937,17.8939,110.771,5.1947e-05,6.674e-05,0.0,0 STARLINK-4303,1 53544U 22101T   22258.91667824  .00006674  00000-0  51947-4 0  9992,2 53544  53.2171  20.4937 0002595  17.8939 110.7710 15.73195723  4290,6727.906999999997,91.533,351.51800000000014,348.026,0.0
53544.0,STARLINK-4303,PAYLOAD,2022-09-16 14:00:01,15.73150369,0.0002858,53.2173,17.1947,25.9522,280.5492,7.8965e-05,0.00010452,0.0,0 STARLINK-4303,1 53544U 22101T   22259.58334491  .00010452  00000-0  78965-4 0  9995,2 53544  53.2173  17.1947 0002858  25.9522 280.5492 15.73150369  1305,6728.0369999999975,91.536,351.825,347.97900000000016,0.0
53544.0,STARLINK-4303,PAYLOAD,2022-09-16 22:00:00,15.73154775,0.000287,53.2169,15.5452,22.6946,12.679,-0.00015814,-0.00022718,0.0,0 STARLINK-4303,1 53544U 22101T   22259.91667824 -.00022718  00000-0 -15814-3 0  9994,2 53544  53.2169  15.5452 0002870  22.6946  12.6790 15.73154775  1301,6728.024,91.536,351.82,347.958,0.0
53544.0,STARLINK-4303,PAYLOAD,2022-09-17 14:00:01,15.7319054,0.0002914,53.2171,12.2468,23.2792,189.8458,0.0002787,0.00038662,0.0,0 STARLINK-4303,1 53544U 22101T   22260.58334491  .00038662  00000-0  27870-3 0  9998,2 53544  53.2171  12.2468 0002914  23.2792 189.8458 15.73190540  1308,6727.922,91.534,351.74800000000016,347.827,0.0
53544.0,STARLINK-4303,PAYLOAD,2022-09-17 22:00:00,15.73243073,0.0002948,53.2171,10.5969,21.2854,280.7609,0.0001001,0.00013476,0.0,0 STARLINK-4303,1 53544U 22101T   22260.91667824  .00013476  00000-0  10010-3 0  9998,2 53544  53.2171  10.5969 0002948  21.2854 280.7609 15.73243073  1308,6727.772,91.531,351.621,347.654,0.0
53544.0,STARLINK-4303,PAYLOAD,2022-09-18 14:00:01,15.73275968,0.0003015,53.2174,7.2979,18.1949,101.8904,-0.00028904,-0.00041132,0.0,0 STARLINK-4303,1 53544U 22101T   22261.58335648 -.00041132  00000-0 -28904-3 0  9991,2 53544  53.2174   7.2979 0003015  18.1949 101.8904 15.73275968  1300,6727.679,91.529,351.57199999999995,347.515,0.0
53544.0,STARLINK-4303,PAYLOAD,2022-09-18 22:00:00,15.73081082,0.0003128999999999,53.2171,5.6415,20.4183,188.6249,0.0011205,0.00158852,0.0,0 STARLINK-4303,1 53544U 22101T   22261.91667824  .00158852  00000-0  11205-2 0  9993,2 53544  53.2171   5.6415 0003129  20.4183 188.6249 15.73081082  4766,6728.234,91.54,352.205,347.994,0.0
53544.0,STARLINK-4303,PAYLOAD,2022-09-19 06:00:02,15.73202942,0.0002991,53.2174,3.988,24.0035,273.9589,1.8041e-05,1.91e-05,0.0,0 STARLINK-4303,1 53544U 22101T   22262.25002315  .00001910  00000-0  18041-4 0  9998,2 53544  53.2174   3.9880 0002991  24.0035 273.9589 15.73202942  4819,6727.887,91.533,351.764,347.73900000000015,0.0
53544.0,STARLINK-4303,PAYLOAD,2022-09-19 14:00:01,15.73197636,0.0003032,53.2173,2.3495,9.1395,17.7811,6.865300000000001e-05,9.023e-05,0.0,0 STARLINK-4303,1 53544U 22101T   22262.58334491  .00009023  00000-0  68653-4 0  9994,2 53544  53.2173   2.3495 0003032   9.1395  17.7811 15.73197636  4863,6727.901999999999,91.533,351.807,347.727,0.0
53544.0,STARLINK-4303,PAYLOAD,2022-09-19 22:00:00,15.73218412,0.0003106,53.2174,0.6992,10.2557,105.5971,-0.00034615,-0.00048973,0.0,0 STARLINK-4303,1 53544U 22101T   22262.91667824 -.00048973  00000-0 -34615-3 0  9999,2 53544  53.2174   0.6992 0003106  10.2557 105.5971 15.73218412  1307,6727.843000000003,91.532,351.797,347.61800000000005,0.0
53544.0,STARLINK-4303,PAYLOAD,2022-09-20 14:00:01,15.73172927,0.0003423,53.2177,357.401,18.549,275.1826,0.0004062999999999,0.00056733,0.0,0 STARLINK-4303,1 53544U 22101T   22263.58334491  .00056733  00000-0  40630-3 0  9999,2 53544  53.2177 357.4010 0003423  18.5490 275.1826 15.73172927  1306,6727.972,91.535,352.14,347.534,0.0
53544.0,STARLINK-4303,PAYLOAD,2022-09-20 22:00:01,15.73258441,0.0003225,53.2174,355.7478,7.1925,15.5071,-0.00062883,-0.00088204,0.0,0 STARLINK-4303,1 53544U 22101T   22263.91668981 -.00088204  00000-0 -62883-3 0  9994,2 53544  53.2174 355.7478 0003225   7.1925  15.5071 15.73258441  5071,6727.729,91.53,351.76300000000015,347.4240000000001,0.0
53544.0,STARLINK-4303,PAYLOAD,2022-09-21 06:00:00,15.732058800000004,0.0003086999999999,53.2177,354.1002,7.2328,104.3517,0.00020082,0.00027667,0.0,0 STARLINK-4303,1 53544U 22101T   22264.25001157  .00027667  00000-0  20082-3 0  9997,2 53544  53.2177 354.1002 0003087   7.2328 104.3517 15.73205880  5132,6727.878000000002,91.533,351.82,347.667,0.0
